{"type": "FeatureCollection", "features": [ {"type": "Feature", "properties": {"norad_id": 34141, "name": "COSMOS 2251 DEB", "group": "cosmos-2251-debris", "lat": 67.1282145046181, "lon": 146.79529295832083, "alt_km": 688.9009146357193, "timestamp": "2025-12-22T23:36:21.110402+00:00", "meta": {"OBJECT_NAME": "COSMOS 2251 DEB", "OBJECT_ID": "1993-036LN", "EPOCH": "2025-12-22T12:06:19.785888", "MEAN_MOTION": 14.49332316, "ECCENTRICITY": 0.00464942, "INCLINATION": 74.0109, "RA_OF_ASC_NODE": 10.5163, "ARG_OF_PERICENTER": 93.1805, "MEAN_ANOMALY": 34.0549, "EPHEMERIS_TYPE": 0, "CLASSIFICATION_TYPE": "U", "NORAD_CAT_ID": 34141, "ELEMENT_SET_NO": 999, "REV_AT_EPOCH": 87835, "BSTAR": 0.0013928106, "MEAN_MOTION_DOT": 5.369e-05, "MEAN_MOTION_DDOT": 0}, "tle": {"line1": "1 34141U 93036LN  25356.50439567  .00005369  00000+0  13928-2 0  9991", "line2": "2 34141  74.0109  10.5163 0046494  93.1805  34.0549 14.49332316878357"}}, "geometry": {"type": "Point", "coordinates": [146.79529295832083, 67.1282145046181]}}, {"type": "Feature", "properties": {"norad_id": 34270, "name": "COSMOS 2251 DEB", "group": "cosmos-2251-debris", "lat": -65.40830353401309, "lon": -111.90334875517757, "alt_km": 711.6902244051244, "timestamp": "2025-12-22T23:36:21.110413+00:00", "meta": {"OBJECT_NAME": "COSMOS 2251 DEB", "OBJECT_ID": "1993-036LQ", "EPOCH": "2025-12-22T05:54:21.131424", "MEAN_MOTION": 14.65238194, "ECCENTRICITY": 0.00479235, "INCLINATION": 74.0119, "RA_OF_ASC_NODE": 288.3075, "ARG_OF_PERICENTER": 78.2442, "MEAN_ANOMALY": 282.4097, "EPHEMERIS_TYPE": 0, "CLASSIFICATION_TYPE": "U", "NORAD_CAT_ID": 34270, "ELEMENT_SET_NO": 999, "REV_AT_EPOCH": 89235, "BSTAR": 0.00069035113, "MEAN_MOTION_DOT": 3.753e-05, "MEAN_MOTION_DDOT": 0}, "tle": {"line1": "1 34270U 93036LQ  25356.24607791  .00003753  00000+0  69035-3 0  9997", "line2": "2 34270  74.0119 288.3075 0047923  78.2442 282.4097 14.65238194892357"}}, "geometry": {"type": "Point", "coordinates": [-111.90334875517757, -65.40830353401309]}}, {"type": "Feature", "properties": {"norad_id": 34271, "name": "COSMOS 2251 DEB", "group": "cosmos-2251-debris", "lat": 72.8023401543647, "lon": -112.77355290468543, "alt_km": 661.6406011800391, "timestamp": "2025-12-22T23:36:21.110423+00:00", "meta": {"OBJECT_NAME": "COSMOS 2251 DEB", "OBJECT_ID": "1993-036LR", "EPOCH": "2025-12-22T11:55:42.494304", "MEAN_MOTION": 14.70960843, "ECCENTRICITY": 0.00182961, "INCLINATION": 74.0192, "RA_OF_ASC_NODE": 180.3666, "ARG_OF_PERICENTER": 233.6422, "MEAN_ANOMALY": 154.5734, "EPHEMERIS_TYPE": 0, "CLASSIFICATION_TYPE": "U", "NORAD_CAT_ID": 34271, "ELEMENT_SET_NO": 999, "REV_AT_EPOCH": 88378, "BSTAR": 0.0022763733, "MEAN_MOTION_DOT": 0.00013988, "MEAN_MOTION_DDOT": 0}, "tle": {"line1": "1 34271U 93036LR  25356.49701961  .00013988  00000+0  22764-2 0  9997", "line2": "2 34271  74.0192 180.3666 0018296 233.6422 154.5734 14.70960843883785"}}, "geometry": {"type": "Point", "coordinates": [-112.77355290468543, 72.8023401543647]}}, {"type": "Feature", "properties": {"norad_id": 34273, "name": "COSMOS 2251 DEB", "group": "cosmos-2251-debris", "lat": 64.94549830767306, "lon": -149.91936911591807, "alt_km": 681.231680326774, "timestamp": "2025-12-22T23:36:21.110434+00:00", "meta": {"OBJECT_NAME": "COSMOS 2251 DEB", "OBJECT_ID": "1993-036LT", "EPOCH": "2025-12-22T06:58:03.451008", "MEAN_MOTION": 14.61305097, "ECCENTRICITY": 0.00135807, "INCLINATION": 74.0358, "RA_OF_ASC_NODE": 69.1662, "ARG_OF_PERICENTER": 194.9715, "MEAN_ANOMALY": 229.1706, "EPHEMERIS_TYPE": 0, "CLASSIFICATION_TYPE": "U", "NORAD_CAT_ID": 34273, "ELEMENT_SET_NO": 999, "REV_AT_EPOCH": 88761, "BSTAR": 0.00082891395, "MEAN_MOTION_DOT": 4.071e-05, "MEAN_MOTION_DDOT": 0}, "tle": {"line1": "1 34273U 93036LT  25356.29031772  .00004071  00000+0  82891-3 0  9994", "line2": "2 34273  74.0358  69.1662 0013580 194.9715 229.1706 14.61305097887614"}}, "geometry": {"type": "Point", "coordinates": [-149.91936911591807, 64.94549830767306]}}, {"type": "Feature", "properties": {"norad_id": 34274, "name": "COSMOS 2251 DEB", "group": "cosmos-2251-debris", "lat": -34.81920958816783, "lon": 37.32142635368954, "alt_km": 692.0849009436724, "timestamp": "2025-12-22T23:36:21.110444+00:00", "meta": {"OBJECT_NAME": "COSMOS 2251 DEB", "OBJECT_ID": "1993-036LU", "EPOCH": "2025-12-22T14:30:07.644096", "MEAN_MOTION": 14.64886943, "ECCENTRICITY": 0.00214539, "INCLINATION": 74.0037, "RA_OF_ASC_NODE": 49.5609, "ARG_OF_PERICENTER": 199.0285, "MEAN_ANOMALY": 284.8567, "EPHEMERIS_TYPE": 0, "CLASSIFICATION_TYPE": "U", "NORAD_CAT_ID": 34274, "ELEMENT_SET_NO": 999, "REV_AT_EPOCH": 88820, "BSTAR": 0.0010110757, "MEAN_MOTION_DOT": 5.396e-05, "MEAN_MOTION_DDOT": 0}, "tle": {"line1": "1 34274U 93036LU  25356.60425514  .00005396  00000+0  10111-2 0  9997", "line2": "2 34274  74.0037  49.5609 0021453 199.0285 284.8567 14.64886943888204"}}, "geometry": {"type": "Point", "coordinates": [37.32142635368954, -34.81920958816783]}}, {"type": "Feature", "properties": {"norad_id": 34276, "name": "COSMOS 2251 DEB", "group": "cosmos-2251-debris", "lat": -17.437860979452903, "lon": 60.68260516132361, "alt_km": 716.7322127775224, "timestamp": "2025-12-22T23:36:21.110454+00:00", "meta": {"OBJECT_NAME": "COSMOS 2251 DEB", "OBJECT_ID": "1993-036LW", "EPOCH": "2025-12-21T23:47:17.316096", "MEAN_MOTION": 14.57284799, "ECCENTRICITY": 0.0022254, "INCLINATION": 74.0239, "RA_OF_ASC_NODE": 67.7315, "ARG_OF_PERICENTER": 213.6612, "MEAN_ANOMALY": 323.8377, "EPHEMERIS_TYPE": 0, "CLASSIFICATION_TYPE": "U", "NORAD_CAT_ID": 34276, "ELEMENT_SET_NO": 999, "REV_AT_EPOCH": 88727, "BSTAR": 0.00065538, "MEAN_MOTION_DOT": 2.946e-05, "MEAN_MOTION_DDOT": 0}, "tle": {"line1": "1 34276U 93036LW  25355.99117264  .00002946  00000+0  65538-3 0  9992", "line2": "2 34276  74.0239  67.7315 0022254 213.6612 323.8377 14.57284799887275"}}, "geometry": {"type": "Point", "coordinates": [60.68260516132361, -17.437860979452903]}}, {"type": "Feature", "properties": {"norad_id": 34297, "name": "COSMOS 2251 DEB", "group": "cosmos-2251-debris", "lat": -44.00066288401589, "lon": -110.61098127467726, "alt_km": 763.9704107703083, "timestamp": "2025-12-22T23:36:21.110465+00:00", "meta": {"OBJECT_NAME": "COSMOS 2251 DEB", "OBJECT_ID": "1993-036MT", "EPOCH": "2025-12-22T12:55:32.427264", "MEAN_MOTION": 14.36637272, "ECCENTRICITY": 0.00176643, "INCLINATION": 74.0487, "RA_OF_ASC_NODE": 266.2396, "ARG_OF_PERICENTER": 333.1294, "MEAN_ANOMALY": 200.1498, "EPHEMERIS_TYPE": 0, "CLASSIFICATION_TYPE": "U", "NORAD_CAT_ID": 34297, "ELEMENT_SET_NO": 999, "REV_AT_EPOCH": 88205, "BSTAR": 0.00012577361, "MEAN_MOTION_DOT": 3.44e-06, "MEAN_MOTION_DDOT": 0}, "tle": {"line1": "1 34297U 93036MT  25356.53856976  .00000344  00000+0  12577-3 0  9991", "line2": "2 34297  74.0487 266.2396 0017664 333.1294 200.1498 14.36637272882058"}}, "geometry": {"type": "Point", "coordinates": [-110.61098127467726, -44.00066288401589]}}, {"type": "Feature", "properties": {"norad_id": 34299, "name": "COSMOS 2251 DEB", "group": "cosmos-2251-debris", "lat": -19.638947260054938, "lon": -55.18817111467967, "alt_km": 236.3926742176227, "timestamp": "2025-12-22T23:36:21.110475+00:00", "meta": {"OBJECT_NAME": "COSMOS 2251 DEB", "OBJECT_ID": "1993-036MV", "EPOCH": "2025-12-22T07:17:55.144608", "MEAN_MOTION": 16.06138862, "ECCENTRICITY": 0.00105715, "INCLINATION": 73.9627, "RA_OF_ASC_NODE": 312.3397, "ARG_OF_PERICENTER": 120.7049, "MEAN_ANOMALY": 239.5236, "EPHEMERIS_TYPE": 0, "CLASSIFICATION_TYPE": "U", "NORAD_CAT_ID": 34299, "ELEMENT_SET_NO": 999, "REV_AT_EPOCH": 89162, "BSTAR": 0.0082227024, "MEAN_MOTION_DOT": 0.04203057, "MEAN_MOTION_DDOT": 0.045423537}, "tle": {"line1": "1 34299U 93036MV  25356.30411047  .04203057  45424-1  82227-2 0  9993", "line2": "2 34299  73.9627 312.3397 0010571 120.7049 239.5236 16.06138862891625"}}, "geometry": {"type": "Point", "coordinates": [-55.18817111467967, -19.638947260054938]}}, {"type": "Feature", "properties": {"norad_id": 34301, "name": "COSMOS 2251 DEB", "group": "cosmos-2251-debris", "lat": -51.349708658075805, "lon": -12.646078809954592, "alt_km": 613.5584479486906, "timestamp": "2025-12-22T23:36:21.110485+00:00", "meta": {"OBJECT_NAME": "COSMOS 2251 DEB", "OBJECT_ID": "1993-036MX", "EPOCH": "2025-12-22T11:29:17.989152", "MEAN_MOTION": 14.84996594, "ECCENTRICITY": 0.00103533, "INCLINATION": 74.0055, "RA_OF_ASC_NODE": 147.3394, "ARG_OF_PERICENTER": 209.8897, "MEAN_ANOMALY": 206.2524, "EPHEMERIS_TYPE": 0, "CLASSIFICATION_TYPE": "U", "NORAD_CAT_ID": 34301, "ELEMENT_SET_NO": 999, "REV_AT_EPOCH": 88545, "BSTAR": 0.0035862363, "MEAN_MOTION_DOT": 0.00030724, "MEAN_MOTION_DDOT": 0}, "tle": {"line1": "1 34301U 93036MX  25356.47868043  .00030724  00000+0  35862-2 0  9994", "line2": "2 34301  74.0055 147.3394 0010353 209.8897 206.2524 14.84996594885450"}}, "geometry": {"type": "Point", "coordinates": [-12.646078809954592, -51.349708658075805]}}, {"type": "Feature", "properties": {"norad_id": 34302, "name": "COSMOS 2251 DEB", "group": "cosmos-2251-debris", "lat": 74.14975965234234, "lon": -168.01239821469719, "alt_km": 790.8249756505202, "timestamp": "2025-12-22T23:36:21.110496+00:00", "meta": {"OBJECT_NAME": "COSMOS 2251 DEB", "OBJECT_ID": "1993-036MY", "EPOCH": "2025-12-22T12:06:26.872416", "MEAN_MOTION": 14.39365544, "ECCENTRICITY": 0.00793336, "INCLINATION": 74.1781, "RA_OF_ASC_NODE": 105.7117, "ARG_OF_PERICENTER": 318.2261, "MEAN_ANOMALY": 168.7703, "EPHEMERIS_TYPE": 0, "CLASSIFICATION_TYPE": "U", "NORAD_CAT_ID": 34302, "ELEMENT_SET_NO": 999, "REV_AT_EPOCH": 87861, "BSTAR": 0.0005248353, "MEAN_MOTION_DOT": 1.667e-05, "MEAN_MOTION_DDOT": 0}, "tle": {"line1": "1 34302U 93036MY  25356.50447769  .00001667  00000+0  52484-3 0  9991", "line2": "2 34302  74.1781 105.7117 0079333 318.2261 168.7703 14.39365544878618"}}, "geometry": {"type": "Point", "coordinates": [-168.01239821469719, 74.14975965234234]}}]}